<?xml version="1.0" encoding="UTF-8" standalone="no" ?>
<q:quakeml xmlns:q="http://quakeml.org/xmlns/quakeml/1.2" xmlns="http://quakeml.org/xmlns/bed/1.2" xmlns:anssevent="http://anss.org/xmlns/event/0.1" xmlns:catalog="http://anss.org/xmlns/catalog/0.1" xmlns:tensor="http://anss.org/xmlns/tensor/0.1">
  <eventParameters xmlns="http://quakeml.org/xmlns/bed/1.2" publicID="quakeml:us.anss.org/eventparameters/7000fxq2/1644102277">
    <comment>
      <text>HYDRA - us</text>
    </comment>
    <event catalog:dataid="us7000fxq2" catalog:datasource="us" catalog:eventid="7000fxq2" catalog:eventsource="us" publicID="quakeml:us.anss.org/event/7000fxq2">
      <description>
        <text>One person killed in Condorcanqui. At least 17 people injured, more than 5,689 buildings damaged or destroyed, several roads damaged and landslides and power outages occurred mostly in Amazonas, Cajamarca, Loreto and San Martin. Some buildings damaged in Loja, Ecuador.


        </text>
        <type>felt report</type>
      </description>
      <description>
        <text>Loreto, Peru</text>
        <type>Flinn-Engdahl region</type>
      </description>
      <description>
        <text>43.3 km (26.9 miles) NNW of Barranca, Loreto, Peru (pop. 5779)

          174.2 km (108.3 miles) N of Moyobamba, San Martín, Peru (pop. 44276)

          176.2 km (109.5 miles) NNW of Yurimaguas, Loreto, Peru (pop. 41827)

          180.2 km (111.9 miles) NNE of Rioja, San Martín, Peru (pop. 25057)

          187.7 km (116.7 miles) N of Soritor, San Martín, Peru (pop. 10858)

        </text>
        <type>nearest cities</type>
      </description>
      <focalMechanism catalog:dataid="us_7000fxq2_mwb" catalog:datasource="us" publicID="quakeml:us.anss.org/focalmechanism/7000fxq2/mwb">
        <waveformID channelCode="BHE" locationCode="--" networkCode="TX" stationCode="833A" tensor:MTChanOffset="-11" tensor:MTChanWaveformFit="0.56" tensor:MTChanWeight="0.19245"/>
        <waveformID channelCode="HHE" locationCode="--" networkCode="HV" stationCode="AIND" tensor:MTChanOffset="-15" tensor:MTChanWaveformFit="0.93" tensor:MTChanWeight="0.19245"/>
        <waveformID channelCode="HHZ" locationCode="--" networkCode="HV" stationCode="AIND" tensor:MTChanOffset="-6" tensor:MTChanWaveformFit="0.76" tensor:MTChanWeight="1"/>
        <waveformID channelCode="LH2" locationCode="00" networkCode="IU" stationCode="ANMO" tensor:MTChanOffset="-16" tensor:MTChanWaveformFit="0.74" tensor:MTChanWeight="0.19245"/>
        <waveformID channelCode="LHZ" locationCode="00" networkCode="IU" stationCode="ANMO" tensor:MTChanOffset="-6" tensor:MTChanWaveformFit="0.71" tensor:MTChanWeight="1"/>
        <waveformID channelCode="LH2" locationCode="10" networkCode="II" stationCode="ASCN" tensor:MTChanOffset="9" tensor:MTChanWaveformFit="0.5" tensor:MTChanWeight="0.19245"/>
        <waveformID channelCode="LHZ" locationCode="10" networkCode="II" stationCode="ASCN" tensor:MTChanOffset="-1" tensor:MTChanWaveformFit="0.77" tensor:MTChanWeight="1"/>
        <waveformID channelCode="LHZ" locationCode="--" networkCode="WM" stationCode="AVE" tensor:MTChanOffset="-6" tensor:MTChanWaveformFit="0.86" tensor:MTChanWeight="1"/>
        <waveformID channelCode="LHZ" locationCode="00" networkCode="IU" stationCode="BBSR" tensor:MTChanOffset="-6" tensor:MTChanWaveformFit="0.69" tensor:MTChanWeight="1"/>
        <waveformID channelCode="BHZ" locationCode="04" networkCode="AI" stationCode="BELA" tensor:MTChanOffset="-6" tensor:MTChanWaveformFit="0.93" tensor:MTChanWeight="1"/>
        <waveformID channelCode="LHZ" locationCode="00" networkCode="US" stationCode="CBKS" tensor:MTChanOffset="-6" tensor:MTChanWaveformFit="0.76" tensor:MTChanWeight="1"/>
        <waveformID channelCode="LHZ" locationCode="00" networkCode="US" stationCode="CBN" tensor:MTChanOffset="-6" tensor:MTChanWaveformFit="0.79" tensor:MTChanWeight="1"/>
        <waveformID channelCode="HHE" locationCode="--" networkCode="CA" stationCode="CEST" tensor:MTChanOffset="0" tensor:MTChanWaveformFit="0.76" tensor:MTChanWeight="0.19245"/>
        <waveformID channelCode="HHZ" locationCode="--" networkCode="CA" stationCode="CEST" tensor:MTChanOffset="-6" tensor:MTChanWaveformFit="0.81" tensor:MTChanWeight="1"/>
        <waveformID channelCode="BHZ" locationCode="--" networkCode="AT" stationCode="CRAG" tensor:MTChanOffset="-6" tensor:MTChanWaveformFit="0.81" tensor:MTChanWeight="1"/>
        <waveformID channelCode="BHZ" locationCode="00" networkCode="GT" stationCode="DBIC" tensor:MTChanOffset="-6" tensor:MTChanWaveformFit="0.84" tensor:MTChanWeight="1"/>
        <waveformID channelCode="HHE" locationCode="--" networkCode="CN" stationCode="DIB" tensor:MTChanOffset="-13" tensor:MTChanWaveformFit="0.76" tensor:MTChanWeight="0.19245"/>
        <waveformID channelCode="LHZ" locationCode="00" networkCode="IU" stationCode="DWPF" tensor:MTChanOffset="-6" tensor:MTChanWaveformFit="0.66" tensor:MTChanWeight="1"/>
        <waveformID channelCode="HHE" locationCode="--" networkCode="IM" stationCode="EKB" tensor:MTChanOffset="3" tensor:MTChanWaveformFit="0.79" tensor:MTChanWeight="0.19245"/>
        <waveformID channelCode="HHZ" locationCode="--" networkCode="IM" stationCode="EKB" tensor:MTChanOffset="-6" tensor:MTChanWaveformFit="0.86" tensor:MTChanWeight="1"/>
        <waveformID channelCode="LH2" locationCode="00" networkCode="US" stationCode="ELK" tensor:MTChanOffset="-15" tensor:MTChanWaveformFit="0.86" tensor:MTChanWeight="0.19245"/>
        <waveformID channelCode="LHZ" locationCode="00" networkCode="US" stationCode="ELK" tensor:MTChanOffset="-6" tensor:MTChanWaveformFit="0.66" tensor:MTChanWeight="1"/>
        <waveformID channelCode="BHE" locationCode="--" networkCode="CI" stationCode="ELS2" tensor:MTChanOffset="-16" tensor:MTChanWaveformFit="0.8" tensor:MTChanWeight="0.19245"/>
        <waveformID channelCode="BHZ" locationCode="--" networkCode="CI" stationCode="ELS2" tensor:MTChanOffset="-6" tensor:MTChanWaveformFit="0.72" tensor:MTChanWeight="1"/>
        <waveformID channelCode="BHZ" locationCode="04" networkCode="AI" stationCode="ESPZ" tensor:MTChanOffset="-6" tensor:MTChanWaveformFit="0.78" tensor:MTChanWeight="1"/>
        <waveformID channelCode="LHE" locationCode="--" networkCode="AK" stationCode="FALS" tensor:MTChanOffset="-5" tensor:MTChanWaveformFit="0.89" tensor:MTChanWeight="0.19245"/>
        <waveformID channelCode="LHZ" locationCode="--" networkCode="AK" stationCode="FALS" tensor:MTChanOffset="-6" tensor:MTChanWaveformFit="0.92" tensor:MTChanWeight="1"/>
        <waveformID channelCode="LH2" locationCode="00" networkCode="II" stationCode="FFC" tensor:MTChanOffset="-3" tensor:MTChanWaveformFit="0.88" tensor:MTChanWeight="0.19245"/>
        <waveformID channelCode="LHZ" locationCode="00" networkCode="II" stationCode="FFC" tensor:MTChanOffset="-6" tensor:MTChanWaveformFit="0.89" tensor:MTChanWeight="1"/>
        <waveformID channelCode="LHE" locationCode="--" networkCode="C" stationCode="GO09" tensor:MTChanOffset="-8" tensor:MTChanWaveformFit="0.9" tensor:MTChanWeight="0.19245"/>
        <waveformID channelCode="LHZ" locationCode="--" networkCode="C" stationCode="GO09" tensor:MTChanOffset="-6" tensor:MTChanWaveformFit="0.8" tensor:MTChanWeight="1"/>
        <waveformID channelCode="LHE" locationCode="--" networkCode="AK" stationCode="HIN" tensor:MTChanOffset="-6" tensor:MTChanWaveformFit="0.89" tensor:MTChanWeight="0.19245"/>
        <waveformID channelCode="LHZ" locationCode="--" networkCode="AK" stationCode="HIN" tensor:MTChanOffset="-6" tensor:MTChanWaveformFit="0.83" tensor:MTChanWeight="1"/>
        <waveformID channelCode="LH2" locationCode="00" networkCode="IU" stationCode="HKT" tensor:MTChanOffset="-13" tensor:MTChanWaveformFit="0.79" tensor:MTChanWeight="0.19245"/>
        <waveformID channelCode="LH2" locationCode="00" networkCode="US" stationCode="HLID" tensor:MTChanOffset="-15" tensor:MTChanWaveformFit="0.85" tensor:MTChanWeight="0.19245"/>
        <waveformID channelCode="LHZ" locationCode="00" networkCode="US" stationCode="HLID" tensor:MTChanOffset="-6" tensor:MTChanWaveformFit="0.64" tensor:MTChanWeight="1"/>
        <waveformID channelCode="LH2" locationCode="10" networkCode="II" stationCode="HOPE" tensor:MTChanOffset="-2" tensor:MTChanWaveformFit="0.58" tensor:MTChanWeight="0.19245"/>
        <waveformID channelCode="LHZ" locationCode="10" networkCode="II" stationCode="HOPE" tensor:MTChanOffset="-4" tensor:MTChanWaveformFit="0.88" tensor:MTChanWeight="1"/>
        <waveformID channelCode="BHZ" locationCode="--" networkCode="MX" stationCode="HPIG" tensor:MTChanOffset="-6" tensor:MTChanWaveformFit="0.63" tensor:MTChanWeight="1"/>
        <waveformID channelCode="HHE" locationCode="--" networkCode="CN" stationCode="HSNB" tensor:MTChanOffset="-3" tensor:MTChanWaveformFit="0.75" tensor:MTChanWeight="0.19245"/>
        <waveformID channelCode="HHZ" locationCode="--" networkCode="CN" stationCode="HSNB" tensor:MTChanOffset="-6" tensor:MTChanWaveformFit="0.77" tensor:MTChanWeight="1"/>
        <waveformID channelCode="HHZ" locationCode="--" networkCode="CN" stationCode="ILON" tensor:MTChanOffset="-6" tensor:MTChanWaveformFit="0.88" tensor:MTChanWeight="1"/>
        <waveformID channelCode="HHZ" locationCode="--" networkCode="BL" stationCode="ITAB" tensor:MTChanOffset="-2" tensor:MTChanWaveformFit="0.75" tensor:MTChanWeight="1"/>
        <waveformID channelCode="LHE" locationCode="00" networkCode="G" stationCode="IVI" tensor:MTChanOffset="1" tensor:MTChanWaveformFit="0.88" tensor:MTChanWeight="0.19245"/>
        <waveformID channelCode="LHZ" locationCode="00" networkCode="G" stationCode="IVI" tensor:MTChanOffset="-6" tensor:MTChanWaveformFit="0.8" tensor:MTChanWeight="1"/>
        <waveformID channelCode="HHE" locationCode="--" networkCode="CN" stationCode="JEDB" tensor:MTChanOffset="-13" tensor:MTChanWaveformFit="0.77" tensor:MTChanWeight="0.19245"/>
        <waveformID channelCode="HHZ" locationCode="--" networkCode="CN" stationCode="JEDB" tensor:MTChanOffset="-6" tensor:MTChanWaveformFit="0.79" tensor:MTChanWeight="1"/>
        <waveformID channelCode="LH2" locationCode="00" networkCode="IU" stationCode="JOHN" tensor:MTChanOffset="-9" tensor:MTChanWaveformFit="0.9" tensor:MTChanWeight="0.19245"/>
        <waveformID channelCode="LHZ" locationCode="00" networkCode="IU" stationCode="JOHN" tensor:MTChanOffset="-6" tensor:MTChanWaveformFit="0.85" tensor:MTChanWeight="1"/>
        <waveformID channelCode="LH2" locationCode="00" networkCode="IU" stationCode="KBS" tensor:MTChanOffset="-1" tensor:MTChanWaveformFit="0.93" tensor:MTChanWeight="0.19245"/>
        <waveformID channelCode="LHZ" locationCode="00" networkCode="IU" stationCode="KBS" tensor:MTChanOffset="-6" tensor:MTChanWaveformFit="0.87" tensor:MTChanWeight="1"/>
        <waveformID channelCode="LH2" locationCode="00" networkCode="IU" stationCode="KIP" tensor:MTChanOffset="-15" tensor:MTChanWaveformFit="0.92" tensor:MTChanWeight="0.19245"/>
        <waveformID channelCode="LHZ" locationCode="00" networkCode="IU" stationCode="KIP" tensor:MTChanOffset="-6" tensor:MTChanWaveformFit="0.77" tensor:MTChanWeight="1"/>
        <waveformID channelCode="LH2" locationCode="00" networkCode="IU" stationCode="KONO" tensor:MTChanOffset="1" tensor:MTChanWaveformFit="0.87" tensor:MTChanWeight="0.19245"/>
        <waveformID channelCode="LHZ" locationCode="00" networkCode="IU" stationCode="KONO" tensor:MTChanOffset="-6" tensor:MTChanWaveformFit="0.89" tensor:MTChanWeight="1"/>
        <waveformID channelCode="HHZ" locationCode="--" networkCode="CN" stationCode="KUQ" tensor:MTChanOffset="-6" tensor:MTChanWaveformFit="0.81" tensor:MTChanWeight="1"/>
        <waveformID channelCode="HHE" locationCode="--" networkCode="UW" stationCode="LCCR" tensor:MTChanOffset="-11" tensor:MTChanWaveformFit="0.9" tensor:MTChanWeight="0.19245"/>
        <waveformID channelCode="HHZ" locationCode="--" networkCode="UW" stationCode="LCCR" tensor:MTChanOffset="-6" tensor:MTChanWaveformFit="0.69" tensor:MTChanWeight="1"/>
        <waveformID channelCode="LHE" locationCode="--" networkCode="C1" stationCode="LL05" tensor:MTChanOffset="-6" tensor:MTChanWaveformFit="0.63" tensor:MTChanWeight="0.19245"/>
        <waveformID channelCode="LHZ" locationCode="--" networkCode="C1" stationCode="LL05" tensor:MTChanOffset="-6" tensor:MTChanWaveformFit="0.7" tensor:MTChanWeight="1"/>
        <waveformID channelCode="LHZ" locationCode="--" networkCode="C1" stationCode="LR03" tensor:MTChanOffset="-6" tensor:MTChanWaveformFit="0.71" tensor:MTChanWeight="1"/>
        <waveformID channelCode="BHE" locationCode="--" networkCode="AV" stationCode="LVA" tensor:MTChanOffset="-5" tensor:MTChanWaveformFit="0.88" tensor:MTChanWeight="0.19245"/>
        <waveformID channelCode="BHZ" locationCode="--" networkCode="AV" stationCode="LVA" tensor:MTChanOffset="-6" tensor:MTChanWaveformFit="0.9" tensor:MTChanWeight="1"/>
        <waveformID channelCode="BHZ" locationCode="--" networkCode="IU" stationCode="MACI" tensor:MTChanOffset="-6" tensor:MTChanWaveformFit="0.83" tensor:MTChanWeight="1"/>
        <waveformID channelCode="BHZ" locationCode="--" networkCode="LX" stationCode="MESJ" tensor:MTChanOffset="-6" tensor:MTChanWaveformFit="0.85" tensor:MTChanWeight="1"/>
        <waveformID channelCode="LHE" locationCode="--" networkCode="C1" stationCode="MG01" tensor:MTChanOffset="-6" tensor:MTChanWaveformFit="0.84" tensor:MTChanWeight="0.19245"/>
        <waveformID channelCode="LHZ" locationCode="--" networkCode="C1" stationCode="MG01" tensor:MTChanOffset="-6" tensor:MTChanWaveformFit="0.84" tensor:MTChanWeight="1"/>
        <waveformID channelCode="LHE" locationCode="--" networkCode="C1" stationCode="MG03" tensor:MTChanOffset="-7" tensor:MTChanWaveformFit="0.84" tensor:MTChanWeight="0.19245"/>
        <waveformID channelCode="LHZ" locationCode="--" networkCode="C1" stationCode="MG03" tensor:MTChanOffset="-6" tensor:MTChanWaveformFit="0.84" tensor:MTChanWeight="1"/>
        <waveformID channelCode="HHE" locationCode="--" networkCode="CN" stationCode="MNTQ" tensor:MTChanOffset="-5" tensor:MTChanWaveformFit="0.8" tensor:MTChanWeight="0.19245"/>
        <waveformID channelCode="HHZ" locationCode="--" networkCode="CN" stationCode="MNTQ" tensor:MTChanOffset="-6" tensor:MTChanWaveformFit="0.78" tensor:MTChanWeight="1"/>
        <waveformID channelCode="BHE" locationCode="--" networkCode="IM" stationCode="NBO00" tensor:MTChanOffset="1" tensor:MTChanWaveformFit="0.88" tensor:MTChanWeight="0.19245"/>
        <waveformID channelCode="BHZ" locationCode="--" networkCode="IM" stationCode="NBO00" tensor:MTChanOffset="-6" tensor:MTChanWaveformFit="0.89" tensor:MTChanWeight="1"/>
        <waveformID channelCode="LHE" locationCode="00" networkCode="BK" stationCode="ORV" tensor:MTChanOffset="-15" tensor:MTChanWaveformFit="0.87" tensor:MTChanWeight="0.19245"/>
        <waveformID channelCode="LHZ" locationCode="00" networkCode="BK" stationCode="ORV" tensor:MTChanOffset="-6" tensor:MTChanWaveformFit="0.58" tensor:MTChanWeight="1"/>
        <waveformID channelCode="LH2" locationCode="00" networkCode="US" stationCode="PKME" tensor:MTChanOffset="-5" tensor:MTChanWaveformFit="0.8" tensor:MTChanWeight="0.19245"/>
        <waveformID channelCode="LHZ" locationCode="00" networkCode="US" stationCode="PKME" tensor:MTChanOffset="-6" tensor:MTChanWaveformFit="0.78" tensor:MTChanWeight="1"/>
        <waveformID channelCode="HHZ" locationCode="01" networkCode="UU" stationCode="PNSU" tensor:MTChanOffset="-6" tensor:MTChanWaveformFit="0.75" tensor:MTChanWeight="1"/>
        <waveformID channelCode="HHE" locationCode="--" networkCode="CN" stationCode="POIN" tensor:MTChanOffset="0" tensor:MTChanWaveformFit="0.76" tensor:MTChanWeight="0.19245"/>
        <waveformID channelCode="HHZ" locationCode="--" networkCode="CN" stationCode="POIN" tensor:MTChanOffset="-6" tensor:MTChanWaveformFit="0.9" tensor:MTChanWeight="1"/>
        <waveformID channelCode="LHE" locationCode="00" networkCode="G" stationCode="PPTF" tensor:MTChanOffset="-17" tensor:MTChanWaveformFit="0.7" tensor:MTChanWeight="0.19245"/>
        <waveformID channelCode="LHZ" locationCode="00" networkCode="G" stationCode="PPTF" tensor:MTChanOffset="-6" tensor:MTChanWaveformFit="0.73" tensor:MTChanWeight="1"/>
        <waveformID channelCode="LH2" locationCode="00" networkCode="IU" stationCode="QSPA" tensor:MTChanOffset="-1" tensor:MTChanWaveformFit="0.93" tensor:MTChanWeight="0.19245"/>
        <waveformID channelCode="LHZ" locationCode="00" networkCode="IU" stationCode="QSPA" tensor:MTChanOffset="-6" tensor:MTChanWaveformFit="0.91" tensor:MTChanWeight="1"/>
        <waveformID channelCode="LHZ" locationCode="00" networkCode="IU" stationCode="RAR" tensor:MTChanOffset="-6" tensor:MTChanWaveformFit="0.83" tensor:MTChanWeight="1"/>
        <waveformID channelCode="LHZ" locationCode="00" networkCode="IU" stationCode="RCBR" tensor:MTChanOffset="0" tensor:MTChanWaveformFit="0.82" tensor:MTChanWeight="1"/>
        <waveformID channelCode="BHE" locationCode="--" networkCode="CN" stationCode="RES" tensor:MTChanOffset="-1" tensor:MTChanWaveformFit="0.84" tensor:MTChanWeight="0.19245"/>
        <waveformID channelCode="BHZ" locationCode="--" networkCode="CN" stationCode="RES" tensor:MTChanOffset="-6" tensor:MTChanWaveformFit="0.9" tensor:MTChanWeight="1"/>
        <waveformID channelCode="LHE" locationCode="--" networkCode="GE" stationCode="RGN" tensor:MTChanOffset="1" tensor:MTChanWaveformFit="0.9" tensor:MTChanWeight="0.19245"/>
        <waveformID channelCode="LHZ" locationCode="--" networkCode="GE" stationCode="RGN" tensor:MTChanOffset="-6" tensor:MTChanWaveformFit="0.87" tensor:MTChanWeight="1"/>
        <waveformID channelCode="LH2" locationCode="00" networkCode="II" stationCode="SACV" tensor:MTChanOffset="-4" tensor:MTChanWaveformFit="0.72" tensor:MTChanWeight="0.19245"/>
        <waveformID channelCode="LHZ" locationCode="00" networkCode="II" stationCode="SACV" tensor:MTChanOffset="-6" tensor:MTChanWaveformFit="0.82" tensor:MTChanWeight="1"/>
        <waveformID channelCode="LH2" locationCode="00" networkCode="IU" stationCode="SBA" tensor:MTChanOffset="-6" tensor:MTChanWaveformFit="0.92" tensor:MTChanWeight="0.19245"/>
        <waveformID channelCode="LHZ" locationCode="00" networkCode="IU" stationCode="SBA" tensor:MTChanOffset="-6" tensor:MTChanWaveformFit="0.88" tensor:MTChanWeight="1"/>
        <waveformID channelCode="LHE" locationCode="--" networkCode="DK" stationCode="SCO" tensor:MTChanOffset="-1" tensor:MTChanWaveformFit="0.91" tensor:MTChanWeight="0.19245"/>
        <waveformID channelCode="LHZ" locationCode="--" networkCode="DK" stationCode="SCO" tensor:MTChanOffset="-6" tensor:MTChanWaveformFit="0.86" tensor:MTChanWeight="1"/>
        <waveformID channelCode="HHZ" locationCode="--" networkCode="LD" stationCode="SDMD" tensor:MTChanOffset="-6" tensor:MTChanWaveformFit="0.77" tensor:MTChanWeight="1"/>
        <waveformID channelCode="LHZ" locationCode="--" networkCode="WM" stationCode="SFS" tensor:MTChanOffset="-6" tensor:MTChanWaveformFit="0.84" tensor:MTChanWeight="1"/>
        <waveformID channelCode="LH2" locationCode="00" networkCode="II" stationCode="SHEL" tensor:MTChanOffset="6" tensor:MTChanWaveformFit="0.66" tensor:MTChanWeight="0.19245"/>
        <waveformID channelCode="LHZ" locationCode="00" networkCode="II" stationCode="SHEL" tensor:MTChanOffset="-3" tensor:MTChanWaveformFit="0.85" tensor:MTChanWeight="1"/>
        <waveformID channelCode="LHE" locationCode="--" networkCode="GE" stationCode="SNAA" tensor:MTChanOffset="-1" tensor:MTChanWaveformFit="0.8" tensor:MTChanWeight="0.19245"/>
        <waveformID channelCode="LHZ" locationCode="--" networkCode="GE" stationCode="SNAA" tensor:MTChanOffset="-6" tensor:MTChanWaveformFit="0.92" tensor:MTChanWeight="1"/>
